IRIDIUM 126             
1 42809U 17039G   25342.61081895  .00000502  00000+0  17202-3 0  9998
2 42809  86.3970  73.3118 0001842  97.2530 262.8875 14.34215925442635
IRIDIUM 124             
1 42810U 17039H   25342.60057923  .00000924  00000+0  26876-3 0  9999
2 42810  86.4494  10.0383 0002162  97.9127 262.2320 14.43287923447626
IRIDIUM 128             
1 42811U 17039J   25342.60155839  .00000527  00000+0  18124-3 0  9991
2 42811  86.3960 104.8492 0002290 101.5881 258.5572 14.34215691442667
IRIDIUM 121             
1 42812U 17039K   25342.62985011  .00000433  00000+0  14741-3 0  9994
2 42812  86.3970  73.3303 0002181  95.9849 264.1595 14.34217947442517
IRIDIUM 133             
1 42955U 17061A   25342.63327550  .00000040  00000+0  72340-5 0  9991
2 42955  86.3964 104.9494 0002096  95.6081 264.5354 14.34215359427469
IRIDIUM 100             
1 42956U 17061B   25342.62692053  .00000622  00000+0  21509-3 0  9999
2 42956  86.3961 104.8748 0001960  97.8465 262.2953 14.34222113427463
IRIDIUM 122             
1 42957U 17061C   25342.59521655 -.00000013  00000+0 -11699-4 0  9991
2 42957  86.3964 104.8880 0001801  96.7914 263.3487 14.34217064427468
IRIDIUM 129             
1 42958U 17061D   25342.62058284  .00000235  00000+0  76761-4 0  9994
2 42958  86.3963 104.9420 0001876  84.7889 275.3521 14.34219361427485
